0 BREEZE-M DEB
1 37203U 08011H   13280.45748983 -.00000931  00000-0 -20939-1 0  7703
2 37203 048.2415 154.7579 6372645 288.5726 160.0029 03.14586418 33925
0 BREEZE-M DEB
1 37203U 08011H   13285.73319363 -.00001217  00000-0 -20939-1 0  7714
2 37203 048.2706 152.5758 6395455 290.2928 015.9765 03.14618897 34081
0 BREEZE-M DEB
1 37203U 08011H   13293.35976809 -.00001131  00000-0 -20939-1 0  7721
2 37203 048.2680 149.8588 6387150 292.8876 013.0823 03.14588830 34329
